STARLINK-2512_new
1 18319C 21036AV  21326.16874838  .00004146  00000-0  27773-3 0  3264
2 18319  53.0533 302.9799 0002000  52.8749  57.5311 15.06399111    11
STARLINK-2512_old
1 28319C 21036AV  21325.14131649  .00001631  00000-0  10930-3 0  3259
2 28319  53.0527 307.5923 0001895  52.8080 242.7358 15.06388031    11
